{"fetched_at":"2026-03-29T16:36:15Z","count":15609,"tles":[{"name":"LEMUR-2-HCS-BAZUS","line1":"1 67388U 26004AB  26087.75313459  .00005915  00000+0  62797-3 0  9997","line2":"2 67388  97.8035  87.8051 0002908  31.1883 328.9507 14.89408510 11330","category":"Other"}]}